{"type": "FeatureCollection", "crs": {"type": "name", "properties": {"name": "EPSG:4326"}}, "features": [{"type": "Feature", "geometry": {"type": "Polygon", "coordinates": [[[77.28, 23.1], [77.31, 23.1], [77.31, 23.131111111111114], [77.28, 23.131111111111114], [77.28, 23.1]]]}, "properties": {"ward_id": 1, "ward_name": "Ward 1", "zone": "South"}}, {"type": "Feature", "geometry": {"type": "Polygon", "coordinates": [[[77.31, 23.1], [77.34, 23.1], [77.34, 23.131111111111114], [77.31, 23.131111111111114], [77.31, 23.1]]]}, "properties": {"ward_id": 2, "ward_name": "Ward 2", "zone": "East"}}, {"type": "Feature", "geometry": {"type": "Polygon", "coordinates": [[[77.34, 23.1], [77.37, 23.1], [77.37, 23.131111111111114], [77.34, 23.131111111111114], [77.34, 23.1]]]}, "properties": {"ward_id": 3, "ward_name": "Ward 3", "zone": "West"}}, {"type": "Feature", "geometry": {"type": "Polygon", "coordinates": [[[77.37, 23.1], [77.4, 23.1], [77.4, 23.131111111111114], [77.37, 23.131111111111114], [77.37, 23.1]]]}, "properties": {"ward_id": 4, "ward_name": "Ward 4", "zone": "Central"}}, {"type": "Feature", "geometry": {"type": "Polygon", "coordinates": [[[77.4, 23.1], [77.43, 23.1], [77.43, 23.131111111111114], [77.4, 23.131111111111114], [77.4, 23.1]]]}, "properties": {"ward_id": 5, "ward_name": "Ward 5", "zone": "North"}}, {"type": "Feature", "geometry": {"type": "Polygon", "coordinates": [[[77.43, 23.1], [77.46000000000001, 23.1], [77.46000000000001, 23.131111111111114], [77.43, 23.131111111111114], [77.43, 23.1]]]}, "properties": {"ward_id": 6, "ward_name": "Ward 6", "zone": "South"}}, {"type": "Feature", "geometry": {"type": "Polygon", "coordinates": [[[77.46, 23.1], [77.49, 23.1], [77.49, 23.131111111111114], [77.46, 23.131111111111114], [77.46, 23.1]]]}, "properties": {"ward_id": 7, "ward_name": "Ward 7", "zone": "East"}}, {"type": "Feature", "geometry": {"type": "Polygon", "coordinates": [[[77.49, 23.1], [77.52, 23.1], [77.52, 23.131111111111114], [77.49, 23.131111111111114], [77.49, 23.1]]]}, "properties": {"ward_id": 8, "ward_name": "Ward 8", "zone": "West"}}, {"type": "Feature", "geometry": {"type": "Polygon", "coordinates": [[[77.52, 23.1], [77.55, 23.1], [77.55, 23.131111111111114], [77.52, 23.131111111111114], [77.52, 23.1]]]}, "properties": {"ward_id": 9, "ward_name": "Ward 9", "zone": "Central"}}, {"type": "Feature", "geometry": {"type": "Polygon", "coordinates": [[[77.55, 23.1], [77.58, 23.1], [77.58, 23.131111111111114], [77.55, 23.131111111111114], [77.55, 23.1]]]}, "properties": {"ward_id": 10, "ward_name": "Ward 10", "zone": "North"}}, {"type": "Feature", "geometry": {"type": "Polygon", "coordinates": [[[77.28, 23.131111111111114], [77.31, 23.131111111111114], [77.31, 23.162222222222226], [77.28, 23.162222222222226], [77.28, 23.131111111111114]]]}, "properties": {"ward_id": 11, "ward_name": "Ward 11", "zone": "South"}}, {"type": "Feature", "geometry": {"type": "Polygon", "coordinates": [[[77.31, 23.131111111111114], [77.34, 23.131111111111114], [77.34, 23.162222222222226], [77.31, 23.162222222222226], [77.31, 23.131111111111114]]]}, "properties": {"ward_id": 12, "ward_name": "Ward 12", "zone": "East"}}, {"type": "Feature", "geometry": {"type": "Polygon", "coordinates": [[[77.34, 23.131111111111114], [77.37, 23.131111111111114], [77.37, 23.162222222222226], [77.34, 23.162222222222226], [77.34, 23.131111111111114]]]}, "properties": {"ward_id": 13, "ward_name": "Ward 13", "zone": "West"}}, {"type": "Feature", "geometry": {"type": "Polygon", "coordinates": [[[77.37, 23.131111111111114], [77.4, 23.131111111111114], [77.4, 23.162222222222226], [77.37, 23.162222222222226], [77.37, 23.131111111111114]]]}, "properties": {"ward_id": 14, "ward_name": "Ward 14", "zone": "Central"}}, {"type": "Feature", "geometry": {"type": "Polygon", "coordinates": [[[77.4, 23.131111111111114], [77.43, 23.131111111111114], [77.43, 23.162222222222226], [77.4, 23.162222222222226], [77.4, 23.131111111111114]]]}, "properties": {"ward_id": 15, "ward_name": "Ward 15", "zone": "North"}}, {"type": "Feature", "geometry": {"type": "Polygon", "coordinates": [[[77.43, 23.131111111111114], [77.46000000000001, 23.131111111111114], [77.46000000000001, 23.162222222222226], [77.43, 23.162222222222226], [77.43, 23.131111111111114]]]}, "properties": {"ward_id": 16, "ward_name": "Ward 16", "zone": "South"}}, {"type": "Feature", "geometry": {"type": "Polygon", "coordinates": [[[77.46, 23.131111111111114], [77.49, 23.131111111111114], [77.49, 23.162222222222226], [77.46, 23.162222222222226], [77.46, 23.131111111111114]]]}, "properties": {"ward_id": 17, "ward_name": "Ward 17", "zone": "East"}}, {"type": "Feature", "geometry": {"type": "Polygon", "coordinates": [[[77.49, 23.131111111111114], [77.52, 23.131111111111114], [77.52, 23.162222222222226], [77.49, 23.162222222222226], [77.49, 23.131111111111114]]]}, "properties": {"ward_id": 18, "ward_name": "Ward 18", "zone": "West"}}, {"type": "Feature", "geometry": {"type": "Polygon", "coordinates": [[[77.52, 23.131111111111114], [77.55, 23.131111111111114], [77.55, 23.162222222222226], [77.52, 23.162222222222226], [77.52, 23.131111111111114]]]}, "properties": {"ward_id": 19, "ward_name": "Ward 19", "zone": "Central"}}, {"type": "Feature", "geometry": {"type": "Polygon", "coordinates": [[[77.55, 23.131111111111114], [77.58, 23.131111111111114], [77.58, 23.162222222222226], [77.55, 23.162222222222226], [77.55, 23.131111111111114]]]}, "properties": {"ward_id": 20, "ward_name": "Ward 20", "zone": "North"}}, {"type": "Feature", "geometry": {"type": "Polygon", "coordinates": [[[77.28, 23.162222222222223], [77.31, 23.162222222222223], [77.31, 23.193333333333335], [77.28, 23.193333333333335], [77.28, 23.162222222222223]]]}, "properties": {"ward_id": 21, "ward_name": "Ward 21", "zone": "South"}}, {"type": "Feature", "geometry": {"type": "Polygon", "coordinates": [[[77.31, 23.162222222222223], [77.34, 23.162222222222223], [77.34, 23.193333333333335], [77.31, 23.193333333333335], [77.31, 23.162222222222223]]]}, "properties": {"ward_id": 22, "ward_name": "Ward 22", "zone": "East"}}, {"type": "Feature", "geometry": {"type": "Polygon", "coordinates": [[[77.34, 23.162222222222223], [77.37, 23.162222222222223], [77.37, 23.193333333333335], [77.34, 23.193333333333335], [77.34, 23.162222222222223]]]}, "properties": {"ward_id": 23, "ward_name": "Ward 23", "zone": "West"}}, {"type": "Feature", "geometry": {"type": "Polygon", "coordinates": [[[77.37, 23.162222222222223], [77.4, 23.162222222222223], [77.4, 23.193333333333335], [77.37, 23.193333333333335], [77.37, 23.162222222222223]]]}, "properties": {"ward_id": 24, "ward_name": "Ward 24", "zone": "Central"}}, {"type": "Feature", "geometry": {"type": "Polygon", "coordinates": [[[77.4, 23.162222222222223], [77.43, 23.162222222222223], [77.43, 23.193333333333335], [77.4, 23.193333333333335], [77.4, 23.162222222222223]]]}, "properties": {"ward_id": 25, "ward_name": "Ward 25", "zone": "North"}}, {"type": "Feature", "geometry": {"type": "Polygon", "coordinates": [[[77.43, 23.162222222222223], [77.46000000000001, 23.162222222222223], [77.46000000000001, 23.193333333333335], [77.43, 23.193333333333335], [77.43, 23.162222222222223]]]}, "properties": {"ward_id": 26, "ward_name": "Ward 26", "zone": "South"}}, {"type": "Feature", "geometry": {"type": "Polygon", "coordinates": [[[77.46, 23.162222222222223], [77.49, 23.162222222222223], [77.49, 23.193333333333335], [77.46, 23.193333333333335], [77.46, 23.162222222222223]]]}, "properties": {"ward_id": 27, "ward_name": "Ward 27", "zone": "East"}}, {"type": "Feature", "geometry": {"type": "Polygon", "coordinates": [[[77.49, 23.162222222222223], [77.52, 23.162222222222223], [77.52, 23.193333333333335], [77.49, 23.193333333333335], [77.49, 23.162222222222223]]]}, "properties": {"ward_id": 28, "ward_name": "Ward 28", "zone": "West"}}, {"type": "Feature", "geometry": {"type": "Polygon", "coordinates": [[[77.52, 23.162222222222223], [77.55, 23.162222222222223], [77.55, 23.193333333333335], [77.52, 23.193333333333335], [77.52, 23.162222222222223]]]}, "properties": {"ward_id": 29, "ward_name": "Ward 29", "zone": "Central"}}, {"type": "Feature", "geometry": {"type": "Polygon", "coordinates": [[[77.55, 23.162222222222223], [77.58, 23.162222222222223], [77.58, 23.193333333333335], [77.55, 23.193333333333335], [77.55, 23.162222222222223]]]}, "properties": {"ward_id": 30, "ward_name": "Ward 30", "zone": "North"}}, {"type": "Feature", "geometry": {"type": "Polygon", "coordinates": [[[77.28, 23.193333333333335], [77.31, 23.193333333333335], [77.31, 23.224444444444448], [77.28, 23.224444444444448], [77.28, 23.193333333333335]]]}, "properties": {"ward_id": 31, "ward_name": "Ward 31", "zone": "South"}}, {"type": "Feature", "geometry": {"type": "Polygon", "coordinates": [[[77.31, 23.193333333333335], [77.34, 23.193333333333335], [77.34, 23.224444444444448], [77.31, 23.224444444444448], [77.31, 23.193333333333335]]]}, "properties": {"ward_id": 32, "ward_name": "Ward 32", "zone": "East"}}, {"type": "Feature", "geometry": {"type": "Polygon", "coordinates": [[[77.34, 23.193333333333335], [77.37, 23.193333333333335], [77.37, 23.224444444444448], [77.34, 23.224444444444448], [77.34, 23.193333333333335]]]}, "properties": {"ward_id": 33, "ward_name": "Ward 33", "zone": "West"}}, {"type": "Feature", "geometry": {"type": "Polygon", "coordinates": [[[77.37, 23.193333333333335], [77.4, 23.193333333333335], [77.4, 23.224444444444448], [77.37, 23.224444444444448], [77.37, 23.193333333333335]]]}, "properties": {"ward_id": 34, "ward_name": "Ward 34", "zone": "Central"}}, {"type": "Feature", "geometry": {"type": "Polygon", "coordinates": [[[77.4, 23.193333333333335], [77.43, 23.193333333333335], [77.43, 23.224444444444448], [77.4, 23.224444444444448], [77.4, 23.193333333333335]]]}, "properties": {"ward_id": 35, "ward_name": "Ward 35", "zone": "North"}}, {"type": "Feature", "geometry": {"type": "Polygon", "coordinates": [[[77.43, 23.193333333333335], [77.46000000000001, 23.193333333333335], [77.46000000000001, 23.224444444444448], [77.43, 23.224444444444448], [77.43, 23.193333333333335]]]}, "properties": {"ward_id": 36, "ward_name": "Ward 36", "zone": "South"}}, {"type": "Feature", "geometry": {"type": "Polygon", "coordinates": [[[77.46, 23.193333333333335], [77.49, 23.193333333333335], [77.49, 23.224444444444448], [77.46, 23.224444444444448], [77.46, 23.193333333333335]]]}, "properties": {"ward_id": 37, "ward_name": "Ward 37", "zone": "East"}}, {"type": "Feature", "geometry": {"type": "Polygon", "coordinates": [[[77.49, 23.193333333333335], [77.52, 23.193333333333335], [77.52, 23.224444444444448], [77.49, 23.224444444444448], [77.49, 23.193333333333335]]]}, "properties": {"ward_id": 38, "ward_name": "Ward 38", "zone": "West"}}, {"type": "Feature", "geometry": {"type": "Polygon", "coordinates": [[[77.52, 23.193333333333335], [77.55, 23.193333333333335], [77.55, 23.224444444444448], [77.52, 23.224444444444448], [77.52, 23.193333333333335]]]}, "properties": {"ward_id": 39, "ward_name": "Ward 39", "zone": "Central"}}, {"type": "Feature", "geometry": {"type": "Polygon", "coordinates": [[[77.55, 23.193333333333335], [77.58, 23.193333333333335], [77.58, 23.224444444444448], [77.55, 23.224444444444448], [77.55, 23.193333333333335]]]}, "properties": {"ward_id": 40, "ward_name": "Ward 40", "zone": "North"}}, {"type": "Feature", "geometry": {"type": "Polygon", "coordinates": [[[77.28, 23.224444444444444], [77.31, 23.224444444444444], [77.31, 23.255555555555556], [77.28, 23.255555555555556], [77.28, 23.224444444444444]]]}, "properties": {"ward_id": 41, "ward_name": "Ward 41", "zone": "South"}}, {"type": "Feature", "geometry": {"type": "Polygon", "coordinates": [[[77.31, 23.224444444444444], [77.34, 23.224444444444444], [77.34, 23.255555555555556], [77.31, 23.255555555555556], [77.31, 23.224444444444444]]]}, "properties": {"ward_id": 42, "ward_name": "Ward 42", "zone": "East"}}, {"type": "Feature", "geometry": {"type": "Polygon", "coordinates": [[[77.34, 23.224444444444444], [77.37, 23.224444444444444], [77.37, 23.255555555555556], [77.34, 23.255555555555556], [77.34, 23.224444444444444]]]}, "properties": {"ward_id": 43, "ward_name": "Ward 43", "zone": "West"}}, {"type": "Feature", "geometry": {"type": "Polygon", "coordinates": [[[77.37, 23.224444444444444], [77.4, 23.224444444444444], [77.4, 23.255555555555556], [77.37, 23.255555555555556], [77.37, 23.224444444444444]]]}, "properties": {"ward_id": 44, "ward_name": "Ward 44", "zone": "Central"}}, {"type": "Feature", "geometry": {"type": "Polygon", "coordinates": [[[77.4, 23.224444444444444], [77.43, 23.224444444444444], [77.43, 23.255555555555556], [77.4, 23.255555555555556], [77.4, 23.224444444444444]]]}, "properties": {"ward_id": 45, "ward_name": "Ward 45", "zone": "North"}}, {"type": "Feature", "geometry": {"type": "Polygon", "coordinates": [[[77.43, 23.224444444444444], [77.46000000000001, 23.224444444444444], [77.46000000000001, 23.255555555555556], [77.43, 23.255555555555556], [77.43, 23.224444444444444]]]}, "properties": {"ward_id": 46, "ward_name": "Ward 46", "zone": "South"}}, {"type": "Feature", "geometry": {"type": "Polygon", "coordinates": [[[77.46, 23.224444444444444], [77.49, 23.224444444444444], [77.49, 23.255555555555556], [77.46, 23.255555555555556], [77.46, 23.224444444444444]]]}, "properties": {"ward_id": 47, "ward_name": "Ward 47", "zone": "East"}}, {"type": "Feature", "geometry": {"type": "Polygon", "coordinates": [[[77.49, 23.224444444444444], [77.52, 23.224444444444444], [77.52, 23.255555555555556], [77.49, 23.255555555555556], [77.49, 23.224444444444444]]]}, "properties": {"ward_id": 48, "ward_name": "Ward 48", "zone": "West"}}, {"type": "Feature", "geometry": {"type": "Polygon", "coordinates": [[[77.52, 23.224444444444444], [77.55, 23.224444444444444], [77.55, 23.255555555555556], [77.52, 23.255555555555556], [77.52, 23.224444444444444]]]}, "properties": {"ward_id": 49, "ward_name": "Ward 49", "zone": "Central"}}, {"type": "Feature", "geometry": {"type": "Polygon", "coordinates": [[[77.55, 23.224444444444444], [77.58, 23.224444444444444], [77.58, 23.255555555555556], [77.55, 23.255555555555556], [77.55, 23.224444444444444]]]}, "properties": {"ward_id": 50, "ward_name": "Ward 50", "zone": "North"}}, {"type": "Feature", "geometry": {"type": "Polygon", "coordinates": [[[77.28, 23.255555555555556], [77.31, 23.255555555555556], [77.31, 23.28666666666667], [77.28, 23.28666666666667], [77.28, 23.255555555555556]]]}, "properties": {"ward_id": 51, "ward_name": "Ward 51", "zone": "South"}}, {"type": "Feature", "geometry": {"type": "Polygon", "coordinates": [[[77.31, 23.255555555555556], [77.34, 23.255555555555556], [77.34, 23.28666666666667], [77.31, 23.28666666666667], [77.31, 23.255555555555556]]]}, "properties": {"ward_id": 52, "ward_name": "Ward 52", "zone": "East"}}, {"type": "Feature", "geometry": {"type": "Polygon", "coordinates": [[[77.34, 23.255555555555556], [77.37, 23.255555555555556], [77.37, 23.28666666666667], [77.34, 23.28666666666667], [77.34, 23.255555555555556]]]}, "properties": {"ward_id": 53, "ward_name": "Ward 53", "zone": "West"}}, {"type": "Feature", "geometry": {"type": "Polygon", "coordinates": [[[77.37, 23.255555555555556], [77.4, 23.255555555555556], [77.4, 23.28666666666667], [77.37, 23.28666666666667], [77.37, 23.255555555555556]]]}, "properties": {"ward_id": 54, "ward_name": "Ward 54", "zone": "Central"}}, {"type": "Feature", "geometry": {"type": "Polygon", "coordinates": [[[77.4, 23.255555555555556], [77.43, 23.255555555555556], [77.43, 23.28666666666667], [77.4, 23.28666666666667], [77.4, 23.255555555555556]]]}, "properties": {"ward_id": 55, "ward_name": "Ward 55", "zone": "North"}}, {"type": "Feature", "geometry": {"type": "Polygon", "coordinates": [[[77.43, 23.255555555555556], [77.46000000000001, 23.255555555555556], [77.46000000000001, 23.28666666666667], [77.43, 23.28666666666667], [77.43, 23.255555555555556]]]}, "properties": {"ward_id": 56, "ward_name": "Ward 56", "zone": "South"}}, {"type": "Feature", "geometry": {"type": "Polygon", "coordinates": [[[77.46, 23.255555555555556], [77.49, 23.255555555555556], [77.49, 23.28666666666667], [77.46, 23.28666666666667], [77.46, 23.255555555555556]]]}, "properties": {"ward_id": 57, "ward_name": "Ward 57", "zone": "East"}}, {"type": "Feature", "geometry": {"type": "Polygon", "coordinates": [[[77.49, 23.255555555555556], [77.52, 23.255555555555556], [77.52, 23.28666666666667], [77.49, 23.28666666666667], [77.49, 23.255555555555556]]]}, "properties": {"ward_id": 58, "ward_name": "Ward 58", "zone": "West"}}, {"type": "Feature", "geometry": {"type": "Polygon", "coordinates": [[[77.52, 23.255555555555556], [77.55, 23.255555555555556], [77.55, 23.28666666666667], [77.52, 23.28666666666667], [77.52, 23.255555555555556]]]}, "properties": {"ward_id": 59, "ward_name": "Ward 59", "zone": "Central"}}, {"type": "Feature", "geometry": {"type": "Polygon", "coordinates": [[[77.55, 23.255555555555556], [77.58, 23.255555555555556], [77.58, 23.28666666666667], [77.55, 23.28666666666667], [77.55, 23.255555555555556]]]}, "properties": {"ward_id": 60, "ward_name": "Ward 60", "zone": "North"}}, {"type": "Feature", "geometry": {"type": "Polygon", "coordinates": [[[77.28, 23.286666666666665], [77.31, 23.286666666666665], [77.31, 23.317777777777778], [77.28, 23.317777777777778], [77.28, 23.286666666666665]]]}, "properties": {"ward_id": 61, "ward_name": "Ward 61", "zone": "South"}}, {"type": "Feature", "geometry": {"type": "Polygon", "coordinates": [[[77.31, 23.286666666666665], [77.34, 23.286666666666665], [77.34, 23.317777777777778], [77.31, 23.317777777777778], [77.31, 23.286666666666665]]]}, "properties": {"ward_id": 62, "ward_name": "Ward 62", "zone": "East"}}, {"type": "Feature", "geometry": {"type": "Polygon", "coordinates": [[[77.34, 23.286666666666665], [77.37, 23.286666666666665], [77.37, 23.317777777777778], [77.34, 23.317777777777778], [77.34, 23.286666666666665]]]}, "properties": {"ward_id": 63, "ward_name": "Ward 63", "zone": "West"}}, {"type": "Feature", "geometry": {"type": "Polygon", "coordinates": [[[77.37, 23.286666666666665], [77.4, 23.286666666666665], [77.4, 23.317777777777778], [77.37, 23.317777777777778], [77.37, 23.286666666666665]]]}, "properties": {"ward_id": 64, "ward_name": "Ward 64", "zone": "Central"}}, {"type": "Feature", "geometry": {"type": "Polygon", "coordinates": [[[77.4, 23.286666666666665], [77.43, 23.286666666666665], [77.43, 23.317777777777778], [77.4, 23.317777777777778], [77.4, 23.286666666666665]]]}, "properties": {"ward_id": 65, "ward_name": "Ward 65", "zone": "North"}}, {"type": "Feature", "geometry": {"type": "Polygon", "coordinates": [[[77.43, 23.286666666666665], [77.46000000000001, 23.286666666666665], [77.46000000000001, 23.317777777777778], [77.43, 23.317777777777778], [77.43, 23.286666666666665]]]}, "properties": {"ward_id": 66, "ward_name": "Ward 66", "zone": "South"}}, {"type": "Feature", "geometry": {"type": "Polygon", "coordinates": [[[77.46, 23.286666666666665], [77.49, 23.286666666666665], [77.49, 23.317777777777778], [77.46, 23.317777777777778], [77.46, 23.286666666666665]]]}, "properties": {"ward_id": 67, "ward_name": "Ward 67", "zone": "East"}}, {"type": "Feature", "geometry": {"type": "Polygon", "coordinates": [[[77.49, 23.286666666666665], [77.52, 23.286666666666665], [77.52, 23.317777777777778], [77.49, 23.317777777777778], [77.49, 23.286666666666665]]]}, "properties": {"ward_id": 68, "ward_name": "Ward 68", "zone": "West"}}, {"type": "Feature", "geometry": {"type": "Polygon", "coordinates": [[[77.52, 23.286666666666665], [77.55, 23.286666666666665], [77.55, 23.317777777777778], [77.52, 23.317777777777778], [77.52, 23.286666666666665]]]}, "properties": {"ward_id": 69, "ward_name": "Ward 69", "zone": "Central"}}, {"type": "Feature", "geometry": {"type": "Polygon", "coordinates": [[[77.55, 23.286666666666665], [77.58, 23.286666666666665], [77.58, 23.317777777777778], [77.55, 23.317777777777778], [77.55, 23.286666666666665]]]}, "properties": {"ward_id": 70, "ward_name": "Ward 70", "zone": "North"}}, {"type": "Feature", "geometry": {"type": "Polygon", "coordinates": [[[77.28, 23.317777777777778], [77.31, 23.317777777777778], [77.31, 23.34888888888889], [77.28, 23.34888888888889], [77.28, 23.317777777777778]]]}, "properties": {"ward_id": 71, "ward_name": "Ward 71", "zone": "South"}}, {"type": "Feature", "geometry": {"type": "Polygon", "coordinates": [[[77.31, 23.317777777777778], [77.34, 23.317777777777778], [77.34, 23.34888888888889], [77.31, 23.34888888888889], [77.31, 23.317777777777778]]]}, "properties": {"ward_id": 72, "ward_name": "Ward 72", "zone": "East"}}, {"type": "Feature", "geometry": {"type": "Polygon", "coordinates": [[[77.34, 23.317777777777778], [77.37, 23.317777777777778], [77.37, 23.34888888888889], [77.34, 23.34888888888889], [77.34, 23.317777777777778]]]}, "properties": {"ward_id": 73, "ward_name": "Ward 73", "zone": "West"}}, {"type": "Feature", "geometry": {"type": "Polygon", "coordinates": [[[77.37, 23.317777777777778], [77.4, 23.317777777777778], [77.4, 23.34888888888889], [77.37, 23.34888888888889], [77.37, 23.317777777777778]]]}, "properties": {"ward_id": 74, "ward_name": "Ward 74", "zone": "Central"}}, {"type": "Feature", "geometry": {"type": "Polygon", "coordinates": [[[77.4, 23.317777777777778], [77.43, 23.317777777777778], [77.43, 23.34888888888889], [77.4, 23.34888888888889], [77.4, 23.317777777777778]]]}, "properties": {"ward_id": 75, "ward_name": "Ward 75", "zone": "North"}}, {"type": "Feature", "geometry": {"type": "Polygon", "coordinates": [[[77.43, 23.317777777777778], [77.46000000000001, 23.317777777777778], [77.46000000000001, 23.34888888888889], [77.43, 23.34888888888889], [77.43, 23.317777777777778]]]}, "properties": {"ward_id": 76, "ward_name": "Ward 76", "zone": "South"}}, {"type": "Feature", "geometry": {"type": "Polygon", "coordinates": [[[77.46, 23.317777777777778], [77.49, 23.317777777777778], [77.49, 23.34888888888889], [77.46, 23.34888888888889], [77.46, 23.317777777777778]]]}, "properties": {"ward_id": 77, "ward_name": "Ward 77", "zone": "East"}}, {"type": "Feature", "geometry": {"type": "Polygon", "coordinates": [[[77.49, 23.317777777777778], [77.52, 23.317777777777778], [77.52, 23.34888888888889], [77.49, 23.34888888888889], [77.49, 23.317777777777778]]]}, "properties": {"ward_id": 78, "ward_name": "Ward 78", "zone": "West"}}, {"type": "Feature", "geometry": {"type": "Polygon", "coordinates": [[[77.52, 23.317777777777778], [77.55, 23.317777777777778], [77.55, 23.34888888888889], [77.52, 23.34888888888889], [77.52, 23.317777777777778]]]}, "properties": {"ward_id": 79, "ward_name": "Ward 79", "zone": "Central"}}, {"type": "Feature", "geometry": {"type": "Polygon", "coordinates": [[[77.55, 23.317777777777778], [77.58, 23.317777777777778], [77.58, 23.34888888888889], [77.55, 23.34888888888889], [77.55, 23.317777777777778]]]}, "properties": {"ward_id": 80, "ward_name": "Ward 80", "zone": "North"}}, {"type": "Feature", "geometry": {"type": "Polygon", "coordinates": [[[77.28, 23.348888888888887], [77.31, 23.348888888888887], [77.31, 23.38], [77.28, 23.38], [77.28, 23.348888888888887]]]}, "properties": {"ward_id": 81, "ward_name": "Ward 81", "zone": "South"}}, {"type": "Feature", "geometry": {"type": "Polygon", "coordinates": [[[77.31, 23.348888888888887], [77.34, 23.348888888888887], [77.34, 23.38], [77.31, 23.38], [77.31, 23.348888888888887]]]}, "properties": {"ward_id": 82, "ward_name": "Ward 82", "zone": "East"}}, {"type": "Feature", "geometry": {"type": "Polygon", "coordinates": [[[77.34, 23.348888888888887], [77.37, 23.348888888888887], [77.37, 23.38], [77.34, 23.38], [77.34, 23.348888888888887]]]}, "properties": {"ward_id": 83, "ward_name": "Ward 83", "zone": "West"}}, {"type": "Feature", "geometry": {"type": "Polygon", "coordinates": [[[77.37, 23.348888888888887], [77.4, 23.348888888888887], [77.4, 23.38], [77.37, 23.38], [77.37, 23.348888888888887]]]}, "properties": {"ward_id": 84, "ward_name": "Ward 84", "zone": "Central"}}, {"type": "Feature", "geometry": {"type": "Polygon", "coordinates": [[[77.4, 23.348888888888887], [77.43, 23.348888888888887], [77.43, 23.38], [77.4, 23.38], [77.4, 23.348888888888887]]]}, "properties": {"ward_id": 85, "ward_name": "Ward 85", "zone": "North"}}, {"type": "Feature", "geometry": {"type": "Polygon", "coordinates": [[[77.43, 23.348888888888887], [77.46000000000001, 23.348888888888887], [77.46000000000001, 23.38], [77.43, 23.38], [77.43, 23.348888888888887]]]}, "properties": {"ward_id": 86, "ward_name": "Ward 86", "zone": "South"}}]}